CUTE-1 (CO-55)          
1 27844U 03031E   26131.01616769  .00000204  00000+0  10731-3 0  9991
2 27844  98.6748 140.0418 0008392 297.0013  63.0309 14.24312209186386
CUBESAT XI-IV (CO-57)   
1 27848U 03031J   26131.47801683  .00000163  00000+0  90730-4 0  9998
2 27848  98.6780 140.2400 0008541 316.3699  43.6804 14.23600673186153
CUBESAT XI-V            
1 28895U 05043F   26131.37052593  .00000850  00000+0  14206-3 0  9999
2 28895  98.2945 286.2304 0013240 326.6866  33.3506 14.72532793 96337
CUTE-1.7+APD II (CO-65) 
1 32785U 08021C   26131.58539577  .00002620  00000+0  16940-3 0  9990
2 32785  97.8260 112.2582 0009959 144.1080 216.0819 15.09098555979672
CANX-2                  
1 32790U 08021H   26131.39971930  .00002172  00000+0  15604-3 0  9996
2 32790  97.8629 110.4762 0010994 158.4481 201.7210 15.05353572979272
SEEDS II (CO-66)        
1 32791U 08021J   26130.97235940  .00011027  00000+0  36525-3 0  9998
2 32791  97.7530 127.1344 0005072  88.5832 271.5989 15.31474077981597
SWISSCUBE               
1 35932U 09051B   26131.22229605  .00000628  00000+0  13391-3 0  9993
2 35932  98.4059  38.4650 0006332 339.6318  20.4629 14.62408237883753
BEESAT-1                
1 35933U 09051C   26131.48647191  .00000510  00000+0  11231-3 0  9997
2 35933  98.3987  38.4455 0005156 356.8811   3.2357 14.61658653883821
ITUPSAT1                
1 35935U 09051E   26130.69163038  .00000508  00000+0  11516-3 0  9997
2 35935  98.4072  36.8697 0007623   5.6146 354.5137 14.60382828883263
TISAT 1                 
1 36799U 10035E   26131.38463647  .00013280  00000+0  45560-3 0  9993
2 36799  98.0690  74.7177 0003666  55.9928 304.1659 15.30302000862075
AEROCUBE 4.5A           
1 38767U 12048K   26131.37194983  .00119564  00000+0  70074-3 0  9999
2 38767  64.6291 159.4897 0019435 217.3526 142.6278 15.77454773366827
STRAND-1                
1 39090U 13009E   26131.50430227  .00000179  00000+0  74739-4 0  9990
2 39090  98.3917 312.6434 0008294 349.0918  11.0088 14.37141086691795
BRITE-AUSTRIA           
1 39091U 13009F   26131.43178424  .00000110  00000+0  51969-4 0  9996
2 39091  98.3988 311.7791 0010037 357.0743   3.0383 14.36527080691771
NEE-01 PEGASO           
1 39151U 13018B   26131.61926555  .00001908  00000+0  18706-3 0  9996
2 39151  98.1174 274.5769 0011188 286.1094  73.8893 14.93479759705244
POPACS 2                
1 39269U 13055E   26131.59604560  .00009204  00000+0  15800-3 0  9992
2 39269  80.9931 186.0535 0419365 311.5041  45.0875 14.90383682657766
POPACS 3                
1 39270U 13055F   26131.61952766  .00011087  00000+0  26516-3 0  9999
2 39270  81.0002 268.8069 0554954 181.1969 178.7950 14.55217731633230
ZACUBE-1 (TSHEPISOSAT)  
1 39417U 13066B   26131.14341808  .00003157  00000+0  24836-3 0  9993
2 39417  97.8120  93.2797 0042130  17.8518 342.4174 15.00898646675178
WNISAT-1                
1 39423U 13066H   26131.35882419  .00000305  00000+0  64546-4 0  9996
2 39423  97.7157 283.1389 0162816 348.4142  11.3329 14.58016619661365
TRITON-1                
1 39427U 13066M   26131.62440234  .00001526  00000+0  18815-3 0  9998
2 39427  97.8261  42.2640 0090303 354.6003   5.4227 14.81541563668675
GOMX-1                  
1 39430U 13066Q   26131.54934679  .00001294  00000+0  20091-3 0  9995
2 39430  97.6515 334.3223 0128324 194.5638 165.1858 14.69314246664538
CUBEBUG-2 (LO-74)       
1 39440U 13066AA  26131.35080674  .00002195  00000+0  20735-3 0  9998
2 39440  97.8888  80.1880 0058773 148.0280 212.4528 14.93485849671494
NEE-02 KRYSAOR          
1 39441U 13066AB  26131.38962224  .00000982  00000+0  11322-3 0  9996
2 39441  97.8880  70.8755 0065923 189.0931 170.9096 14.86480005670732
FUNCUBE-1 (AO-73)       
1 39444U 13066AE  26131.59147391  .00005470  00000+0  34515-3 0  9998
2 39444  97.8258 102.2919 0035581 331.0959  28.8297 15.09009001674144
UWE-3                   
1 39446U 13066AG  26131.38258806  .00001982  00000+0  17442-3 0  9995
2 39446  97.8679  87.2245 0050992  82.4321 278.2689 14.96714136672073
BRITE-CA1 (TORONTO)     
1 40020U 14033L   26131.61907456  .00000460  00000+0  76723-4 0  9996
2 40020  97.9686 261.2334 0079385  34.8892 325.7483 14.72626037636836
DUCHIFAT-1              
1 40021U 14033M   26131.41895469  .00055146  00000+0  72925-3 0  9995
2 40021  98.0508 185.6247 0005703 190.8241 169.2891 15.58150241650012
NANOSATC-BR1            
1 40024U 14033Q   26131.53536653  .00009937  00000+0  34204-3 0  9993
2 40024  98.0758 160.7076 0002025 334.6480  25.4659 15.30286186648372
QB50P1                  
1 40025U 14033R   26131.49884577  .00005562  00000+0  27960-3 0  9991
2 40025  98.0984 140.0889 0008530   3.8337 356.2959 15.17684156647461
QB50P2                  
1 40032U 14033Y   26131.44113331  .00004121  00000+0  22665-3 0  9994
2 40032  98.0758 126.0504 0005901 309.5407  50.5301 15.14684349647106
PERSEUS-M2              
1 40037U 14033AD  26131.59682951  .00001177  00000+0  11195-3 0  9998
2 40037  97.9935  81.4011 0013119  64.0052 296.2518 14.95392837645318
